{
  "type": "FeatureCollection",
  "features": [
    {
      "type": "Feature",
      "properties": {
        "segment_id": "122030766",
        "highway": "tertiary",
        "status": "clear",
        "flood_overlap_ratio": 0.0
      },
      "geometry": {
        "type": "LineString",
        "coordinates": [
          [
            91.752166,
            26.1595101
          ],
          [
            91.752565,
            26.1598962
          ],
          [
            91.7526602,
            26.1599633
          ],
          [
            91.7527489,
            26.1603202
          ],
          [
            91.7527253,
            26.1604962
          ],
          [
            91.7527182,
            26.1605495
          ],
          [
            91.7525649,
            26.1606137
          ],
          [
            91.7524833,
            26.1609432
          ],
          [
            91.7524423,
            26.1611091
          ],
          [
            91.7523374,
            26.1612705
          ],
          [
            91.7522276,
            26.1614394
          ],
          [
            91.7521399,
            26.1617142
          ],
          [
            91.752012,
            26.161912
          ],
          [
            91.7518904,
            26.1620999
          ],
          [
            91.7518188,
            26.1624026
          ],
          [
            91.7522072,
            26.1626411
          ],
          [
            91.7522001,
            26.1627058
          ],
          [
            91.7521666,
            26.1630132
          ],
          [
            91.7521561,
            26.163109
          ],
          [
            91.7522289,
            26.1634981
          ],
          [
            91.7522865,
            26.1638062
          ],
          [
            91.7523451,
            26.1641191
          ],
          [
            91.7523912,
            26.1643658
          ],
          [
            91.7524201,
            26.1647353
          ],
          [
            91.7524255,
            26.165183
          ],
          [
            91.7524131,
            26.1656636
          ],
          [
            91.7524041,
            26.1660208
          ],
          [
            91.7523435,
            26.1677568
          ]
        ]
      }
    },
    {
      "type": "Feature",
      "properties": {
        "segment_id": "261074457",
        "highway": "residential",
        "status": "clear",
        "flood_overlap_ratio": 0.0
      },
      "geometry": {
        "type": "LineString",
        "coordinates": [
          [
            91.7597087,
            26.158347
          ],
          [
            91.7597528,
            26.1586538
          ],
          [
            91.7597231,
            26.159086
          ],
          [
            91.7596739,
            26.1595973
          ],
          [
            91.759651,
            26.1596972
          ],
          [
            91.7595574,
            26.1604901
          ],
          [
            91.7595669,
            26.160555
          ],
          [
            91.7595896,
            26.1607092
          ],
          [
            91.7596381,
            26.1608331
          ],
          [
            91.7596593,
            26.1608873
          ],
          [
            91.7598431,
            26.1611461
          ],
          [
            91.7599079,
            26.161287
          ],
          [
            91.759996,
            26.1614784
          ],
          [
            91.7600831,
            26.161825
          ],
          [
            91.7601542,
            26.1622126
          ],
          [
            91.7601327,
            26.1626712
          ],
          [
            91.7601644,
            26.1633053
          ],
          [
            91.7601927,
            26.1635809
          ],
          [
            91.7602434,
            26.1640075
          ],
          [
            91.7602697,
            26.1643459
          ],
          [
            91.7603107,
            26.1648748
          ],
          [
            91.7603802,
            26.1657699
          ],
          [
            91.7605323,
            26.1667577
          ],
          [
            91.7605803,
            26.1669369
          ],
          [
            91.7606867,
            26.1670727
          ]
        ]
      }
    },
    {
      "type": "Feature",
      "properties": {
        "segment_id": "507819054",
        "highway": "residential",
        "status": "clear",
        "flood_overlap_ratio": 0.0
      },
      "geometry": {
        "type": "LineString",
        "coordinates": [
          [
            91.752565,
            26.1598962
          ],
          [
            91.7529164,
            26.1598362
          ],
          [
            91.7535386,
            26.1598121
          ],
          [
            91.7537838,
            26.1598121
          ],
          [
            91.7539731,
            26.1598121
          ],
          [
            91.754354,
            26.1597495
          ],
          [
            91.7544559,
            26.1598266
          ],
          [
            91.7545525,
            26.1600095
          ],
          [
            91.7546113,
            26.1600327
          ],
          [
            91.7546866,
            26.1600625
          ],
          [
            91.7548368,
            26.1600432
          ],
          [
            91.75513,
            26.1599951
          ]
        ]
      }
    },
    {
      "type": "Feature",
      "properties": {
        "segment_id": "507819094",
        "highway": "residential",
        "status": "submerged",
        "flood_overlap_ratio": 0.5438
      },
      "geometry": {
        "type": "LineString",
        "coordinates": [
          [
            91.7504604,
            26.1576606
          ],
          [
            91.7506834,
            26.157767
          ],
          [
            91.7508229,
            26.1578271
          ],
          [
            91.7509168,
            26.1578368
          ],
          [
            91.7510804,
            26.1577886
          ],
          [
            91.7512145,
            26.1576851
          ],
          [
            91.7513808,
            26.1576514
          ],
          [
            91.7514934,
            26.1576731
          ],
          [
            91.7515391,
            26.1576685
          ],
          [
            91.75159,
            26.1576634
          ],
          [
            91.7516356,
            26.1576057
          ],
          [
            91.7517188,
            26.1575154
          ],
          [
            91.7517858,
            26.1573962
          ],
          [
            91.7518338,
            26.1572678
          ],
          [
            91.751909,
            26.1571582
          ],
          [
            91.7519841,
            26.1571088
          ],
          [
            91.7520525,
            26.1570727
          ],
          [
            91.752259,
            26.1569451
          ],
          [
            91.7524011,
            26.1568632
          ],
          [
            91.7525084,
            26.1568223
          ],
          [
            91.7526238,
            26.1567862
          ],
          [
            91.7527203,
            26.1567465
          ],
          [
            91.7527954,
            26.1566959
          ],
          [
            91.7528464,
            26.1566562
          ],
          [
            91.7529121,
            26.1565888
          ],
          [
            91.7529429,
            26.1565117
          ],
          [
            91.7529751,
            26.1563589
          ],
          [
            91.7530221,
            26.1561422
          ],
          [
            91.7532629,
            26.155395
          ]
        ]
      }
    },
    {
      "type": "Feature",
      "properties": {
        "segment_id": "507819099",
        "highway": "residential",
        "status": "clear",
        "flood_overlap_ratio": 0.0
      },
      "geometry": {
        "type": "LineString",
        "coordinates": [
          [
            91.7495225,
            26.1601978
          ],
          [
            91.7495837,
            26.1597628
          ],
          [
            91.7496433,
            26.1596383
          ],
          [
            91.7498948,
            26.1592187
          ],
          [
            91.7501792,
            26.1588263
          ],
          [
            91.750273,
            26.1586674
          ],
          [
            91.7503347,
            26.158482
          ],
          [
            91.7503079,
            26.1583761
          ],
          [
            91.7502596,
            26.1582051
          ],
          [
            91.7502757,
            26.1580775
          ],
          [
            91.7503186,
            26.1579957
          ],
          [
            91.7504554,
            26.1577164
          ],
          [
            91.7504604,
            26.1576606
          ],
          [
            91.7504561,
            26.1575442
          ],
          [
            91.7503847,
            26.1572499
          ],
          [
            91.7500448,
            26.1570807
          ],
          [
            91.7495309,
            26.15716
          ],
          [
            91.7494608,
            26.1567322
          ],
          [
            91.7488511,
            26.1566561
          ]
        ]
      }
    },
    {
      "type": "Feature",
      "properties": {
        "segment_id": "507819107",
        "highway": "residential",
        "status": "clear",
        "flood_overlap_ratio": 0.0
      },
      "geometry": {
        "type": "LineString",
        "coordinates": [
          [
            91.7568002,
            26.160414
          ],
          [
            91.7559258,
            26.1603321
          ],
          [
            91.7554966,
            26.1602888
          ],
          [
            91.7551265,
            26.1602262
          ],
          [
            91.75513,
            26.1599951
          ],
          [
            91.7551909,
            26.1598843
          ],
          [
            91.7554376,
            26.1598266
          ],
          [
            91.7556951,
            26.1598699
          ],
          [
            91.7560545,
            26.1599469
          ],
          [
            91.7563442,
            26.1598892
          ],
          [
            91.756945,
            26.1597929
          ],
          [
            91.7571221,
            26.1598169
          ],
          [
            91.7572293,
            26.1599806
          ],
          [
            91.7576907,
            26.1600577
          ]
        ]
      }
    },
    {
      "type": "Feature",
      "properties": {
        "segment_id": "507819485",
        "highway": "residential",
        "status": "clear",
        "flood_overlap_ratio": 0.0
      },
      "geometry": {
        "type": "LineString",
        "coordinates": [
          [
            91.7515391,
            26.1576685
          ],
          [
            91.7516436,
            26.1580077
          ],
          [
            91.7518046,
            26.1582653
          ],
          [
            91.752105,
            26.158612
          ],
          [
            91.7522498,
            26.1587781
          ],
          [
            91.7523267,
            26.1588383
          ]
        ]
      }
    },
    {
      "type": "Feature",
      "properties": {
        "segment_id": "507819563",
        "highway": "residential",
        "status": "clear",
        "flood_overlap_ratio": 0.0
      },
      "geometry": {
        "type": "LineString",
        "coordinates": [
          [
            91.7539731,
            26.1598121
          ],
          [
            91.7540751,
            26.1602743
          ],
          [
            91.7541073,
            26.1605584
          ],
          [
            91.7540684,
            26.16063
          ],
          [
            91.7539088,
            26.1609244
          ],
          [
            91.7538833,
            26.1609866
          ],
          [
            91.7537586,
            26.1612903
          ],
          [
            91.7537586,
            26.1614037
          ],
          [
            91.7537586,
            26.1616562
          ],
          [
            91.7537465,
            26.1618348
          ],
          [
            91.7537264,
            26.1621303
          ],
          [
            91.753721,
            26.1622099
          ],
          [
            91.7537447,
            26.1624206
          ],
          [
            91.7538014,
            26.1629245
          ]
        ]
      }
    },
    {
      "type": "Feature",
      "properties": {
        "segment_id": "508671020",
        "highway": "residential",
        "status": "clear",
        "flood_overlap_ratio": 0.0
      },
      "geometry": {
        "type": "LineString",
        "coordinates": [
          [
            91.7609856,
            26.1570173
          ],
          [
            91.7606878,
            26.1570005
          ],
          [
            91.7603525,
            26.1569571
          ],
          [
            91.7602909,
            26.1569668
          ],
          [
            91.7601326,
            26.1572942
          ],
          [
            91.7598152,
            26.157244
          ],
          [
            91.7596257,
            26.1571955
          ],
          [
            91.759631,
            26.1571208
          ],
          [
            91.7592743,
            26.1570727
          ],
          [
            91.7586681,
            26.157116
          ]
        ]
      }
    },
    {
      "type": "Feature",
      "properties": {
        "segment_id": "508671021",
        "highway": "residential",
        "status": "partial",
        "flood_overlap_ratio": 0.1121
      },
      "geometry": {
        "type": "LineString",
        "coordinates": [
          [
            91.7598565,
            26.1568134
          ],
          [
            91.7592368,
            26.1567501
          ],
          [
            91.7587647,
            26.1567814
          ],
          [
            91.7583731,
            26.1568151
          ],
          [
            91.7577991,
            26.1568319
          ]
        ]
      }
    },
    {
      "type": "Feature",
      "properties": {
        "segment_id": "508671022",
        "highway": "residential",
        "status": "clear",
        "flood_overlap_ratio": 0.0
      },
      "geometry": {
        "type": "LineString",
        "coordinates": [
          [
            91.7592662,
            26.1580574
          ],
          [
            91.7595318,
            26.1573471
          ]
        ]
      }
    },
    {
      "type": "Feature",
      "properties": {
        "segment_id": "508671023",
        "highway": "residential",
        "status": "clear",
        "flood_overlap_ratio": 0.0
      },
      "geometry": {
        "type": "LineString",
        "coordinates": [
          [
            91.7594762,
            26.1582044
          ],
          [
            91.7596686,
            26.1577492
          ],
          [
            91.7598152,
            26.157244
          ],
          [
            91.7598671,
            26.1570655
          ],
          [
            91.7598724,
            26.1569018
          ],
          [
            91.759866,
            26.1568658
          ],
          [
            91.7598565,
            26.1568134
          ],
          [
            91.7597772,
            26.1563724
          ],
          [
            91.7596042,
            26.1555198
          ]
        ]
      }
    },
    {
      "type": "Feature",
      "properties": {
        "segment_id": "508672018",
        "highway": "residential",
        "status": "clear",
        "flood_overlap_ratio": 0.0
      },
      "geometry": {
        "type": "LineString",
        "coordinates": [
          [
            91.7597231,
            26.159086
          ],
          [
            91.7608219,
            26.1590905
          ],
          [
            91.7610671,
            26.1590968
          ]
        ]
      }
    },
    {
      "type": "Feature",
      "properties": {
        "segment_id": "508672019",
        "highway": "living_street",
        "status": "clear",
        "flood_overlap_ratio": 0.0
      },
      "geometry": {
        "type": "LineString",
        "coordinates": [
          [
            91.760197,
            26.1596222
          ],
          [
            91.7596739,
            26.1595973
          ]
        ]
      }
    },
    {
      "type": "Feature",
      "properties": {
        "segment_id": "508672054",
        "highway": "residential",
        "status": "clear",
        "flood_overlap_ratio": 0.0
      },
      "geometry": {
        "type": "LineString",
        "coordinates": [
          [
            91.7585072,
            26.1587411
          ],
          [
            91.7585421,
            26.158587
          ],
          [
            91.7585233,
            26.158445
          ],
          [
            91.7583675,
            26.1580333
          ]
        ]
      }
    },
    {
      "type": "Feature",
      "properties": {
        "segment_id": "508672055",
        "highway": "residential",
        "status": "clear",
        "flood_overlap_ratio": 0.0
      },
      "geometry": {
        "type": "LineString",
        "coordinates": [
          [
            91.7585796,
            26.1591311
          ],
          [
            91.7582417,
            26.1591985
          ],
          [
            91.7578719,
            26.1592119
          ],
          [
            91.7571725,
            26.1592371
          ]
        ]
      }
    },
    {
      "type": "Feature",
      "properties": {
        "segment_id": "508672059",
        "highway": "residential",
        "status": "clear",
        "flood_overlap_ratio": 0.0
      },
      "geometry": {
        "type": "LineString",
        "coordinates": [
          [
            91.7574293,
            26.1588254
          ],
          [
            91.7580888,
            26.1588013
          ],
          [
            91.7583489,
            26.1587603
          ],
          [
            91.7585072,
            26.1587411
          ],
          [
            91.7585716,
            26.1590589
          ],
          [
            91.7585796,
            26.1591311
          ],
          [
            91.758872,
            26.1591118
          ],
          [
            91.7597231,
            26.159086
          ]
        ]
      }
    },
    {
      "type": "Feature",
      "properties": {
        "segment_id": "508672060",
        "highway": "residential",
        "status": "clear",
        "flood_overlap_ratio": 0.0
      },
      "geometry": {
        "type": "LineString",
        "coordinates": [
          [
            91.759651,
            26.1596972
          ],
          [
            91.7593655,
            26.1597233
          ],
          [
            91.7590839,
            26.1597859
          ],
          [
            91.7589819,
            26.1598269
          ],
          [
            91.758939,
            26.1598654
          ],
          [
            91.7588934,
            26.1600074
          ],
          [
            91.7588237,
            26.1603156
          ]
        ]
      }
    },
    {
      "type": "Feature",
      "properties": {
        "segment_id": "543640152",
        "highway": "secondary",
        "status": "clear",
        "flood_overlap_ratio": 0.0
      },
      "geometry": {
        "type": "LineString",
        "coordinates": [
          [
            91.7583675,
            26.1580333
          ],
          [
            91.7581995,
            26.1580943
          ],
          [
            91.7579761,
            26.1581753
          ],
          [
            91.7577527,
            26.1582134
          ],
          [
            91.7574477,
            26.1582435
          ],
          [
            91.7570097,
            26.1582594
          ],
          [
            91.7569756,
            26.1582606
          ],
          [
            91.7563508,
            26.1582445
          ],
          [
            91.7555675,
            26.1581777
          ],
          [
            91.7553529,
            26.1581705
          ],
          [
            91.7551571,
            26.1581778
          ],
          [
            91.7545476,
            26.158266
          ],
          [
            91.7543256,
            26.1582933
          ],
          [
            91.7542064,
            26.1583228
          ],
          [
            91.7539716,
            26.1583956
          ],
          [
            91.7537932,
            26.1584799
          ],
          [
            91.753719,
            26.1585275
          ],
          [
            91.7535346,
            26.1587538
          ],
          [
            91.753415,
            26.1588374
          ],
          [
            91.7533513,
            26.1588618
          ],
          [
            91.7532822,
            26.1588747
          ],
          [
            91.7529254,
            26.1588641
          ],
          [
            91.7526675,
            26.1588468
          ],
          [
            91.7523777,
            26.1588184
          ],
          [
            91.7523468,
            26.158826
          ],
          [
            91.7523267,
            26.1588383
          ],
          [
            91.752312,
            26.1588566
          ],
          [
            91.7523073,
            26.1588819
          ],
          [
            91.7522692,
            26.1591519
          ],
          [
            91.7522208,
            26.1594459
          ],
          [
            91.7521993,
            26.1594838
          ],
          [
            91.752166,
            26.1595101
          ],
          [
            91.7521249,
            26.1595199
          ],
          [
            91.7518432,
            26.1595031
          ],
          [
            91.7516729,
            26.1595115
          ],
          [
            91.7515108,
            26.1595336
          ],
          [
            91.7514235,
            26.1595584
          ],
          [
            91.7513627,
            26.1595991
          ],
          [
            91.7512087,
            26.1598203
          ],
          [
            91.7511579,
            26.1598473
          ],
          [
            91.7510928,
            26.1598556
          ],
          [
            91.7508454,
            26.1598047
          ],
          [
            91.7507127,
            26.1597859
          ],
          [
            91.7505705,
            26.1597811
          ],
          [
            91.7504123,
            26.1598079
          ],
          [
            91.7500572,
            26.159943
          ],
          [
            91.749896,
            26.1600145
          ],
          [
            91.7496666,
            26.1601133
          ],
          [
            91.7495225,
            26.1601978
          ],
          [
            91.7491928,
            26.1604378
          ],
          [
            91.7490718,
            26.1605113
          ],
          [
            91.7489082,
            26.1606124
          ],
          [
            91.7487035,
            26.1607157
          ],
          [
            91.7483341,
            26.1608439
          ],
          [
            91.7481726,
            26.1608907
          ],
          [
            91.747686,
            26.1610482
          ],
          [
            91.7476013,
            26.1610932
          ],
          [
            91.7475349,
            26.16114
          ],
          [
            91.7474592,
            26.161216
          ],
          [
            91.7471683,
            26.1615647
          ],
          [
            91.7467846,
            26.1619743
          ],
          [
            91.746735,
            26.1620273
          ],
          [
            91.746692,
            26.1620911
          ],
          [
            91.7466639,
            26.1621573
          ],
          [
            91.7466514,
            26.1622289
          ],
          [
            91.7466319,
            26.1628979
          ],
          [
            91.7465574,
            26.1636337
          ]
        ]
      }
    },
    {
      "type": "Feature",
      "properties": {
        "segment_id": "713646165",
        "highway": "residential",
        "status": "clear",
        "flood_overlap_ratio": 0.0
      },
      "geometry": {
        "type": "LineString",
        "coordinates": [
          [
            91.7570749,
            26.15877
          ],
          [
            91.7569756,
            26.1582606
          ]
        ]
      }
    },
    {
      "type": "Feature",
      "properties": {
        "segment_id": "713646166",
        "highway": "residential",
        "status": "clear",
        "flood_overlap_ratio": 0.0
      },
      "geometry": {
        "type": "LineString",
        "coordinates": [
          [
            91.7563085,
            26.1587436
          ],
          [
            91.7570749,
            26.15877
          ],
          [
            91.7571393,
            26.1588542
          ],
          [
            91.7571634,
            26.1591287
          ],
          [
            91.7571725,
            26.1592371
          ],
          [
            91.7571983,
            26.1595452
          ]
        ]
      }
    },
    {
      "type": "Feature",
      "properties": {
        "segment_id": "713646167",
        "highway": "residential",
        "status": "clear",
        "flood_overlap_ratio": 0.0
      },
      "geometry": {
        "type": "LineString",
        "coordinates": [
          [
            91.7563508,
            26.1582445
          ],
          [
            91.7563319,
            26.1584402
          ],
          [
            91.7563024,
            26.1586689
          ],
          [
            91.7563085,
            26.1587436
          ],
          [
            91.75634,
            26.1591335
          ]
        ]
      }
    },
    {
      "type": "Feature",
      "properties": {
        "segment_id": "744805371",
        "highway": "residential",
        "status": "clear",
        "flood_overlap_ratio": 0.0
      },
      "geometry": {
        "type": "LineString",
        "coordinates": [
          [
            91.7542064,
            26.1583228
          ],
          [
            91.7542304,
            26.158581
          ],
          [
            91.7546099,
            26.1587011
          ],
          [
            91.7550632,
            26.1588446
          ],
          [
            91.7554146,
            26.158894
          ],
          [
            91.7554227,
            26.1590264
          ],
          [
            91.755884,
            26.15903
          ]
        ]
      }
    },
    {
      "type": "Feature",
      "properties": {
        "segment_id": "755769757",
        "highway": "residential",
        "status": "submerged",
        "flood_overlap_ratio": 0.9058
      },
      "geometry": {
        "type": "LineString",
        "coordinates": [
          [
            91.7517188,
            26.1575154
          ],
          [
            91.751972,
            26.157547
          ],
          [
            91.7522483,
            26.1575975
          ],
          [
            91.7524239,
            26.1576252
          ],
          [
            91.7524937,
            26.1574603
          ],
          [
            91.7525513,
            26.1573483
          ],
          [
            91.7525808,
            26.1572821
          ],
          [
            91.752668,
            26.1571774
          ],
          [
            91.7528169,
            26.1570871
          ],
          [
            91.7529336,
            26.1570281
          ],
          [
            91.7531227,
            26.1569752
          ],
          [
            91.7531884,
            26.1569415
          ],
          [
            91.7532769,
            26.1568885
          ],
          [
            91.7533158,
            26.1567982
          ],
          [
            91.7533319,
            26.1566586
          ],
          [
            91.7533533,
            26.1565791
          ],
          [
            91.7533936,
            26.1565515
          ],
          [
            91.7535585,
            26.1565286
          ],
          [
            91.7536336,
            26.1565274
          ],
          [
            91.7537154,
            26.1565575
          ],
          [
            91.7543502,
            26.1561632
          ]
        ]
      }
    },
    {
      "type": "Feature",
      "properties": {
        "segment_id": "991931010",
        "highway": "residential",
        "status": "clear",
        "flood_overlap_ratio": 0.0
      },
      "geometry": {
        "type": "LineString",
        "coordinates": [
          [
            91.7510804,
            26.1577886
          ],
          [
            91.7510585,
            26.1572002
          ],
          [
            91.7510102,
            26.1569836
          ],
          [
            91.7509566,
            26.156897
          ],
          [
            91.7506884,
            26.1565792
          ],
          [
            91.7505865,
            26.1563915
          ],
          [
            91.7505597,
            26.1561893
          ]
        ]
      }
    },
    {
      "type": "Feature",
      "properties": {
        "segment_id": "991931027",
        "highway": "residential",
        "status": "clear",
        "flood_overlap_ratio": 0.0
      },
      "geometry": {
        "type": "LineString",
        "coordinates": [
          [
            91.7503347,
            26.158482
          ],
          [
            91.7506296,
            26.1585735
          ],
          [
            91.7507659,
            26.1586497
          ],
          [
            91.7509139,
            26.1587323
          ],
          [
            91.7511016,
            26.1589104
          ],
          [
            91.7511499,
            26.1589923
          ],
          [
            91.751107,
            26.1592522
          ],
          [
            91.7509391,
            26.1595903
          ],
          [
            91.7508454,
            26.1598047
          ],
          [
            91.7507369,
            26.1600899
          ],
          [
            91.7506027,
            26.1602054
          ],
          [
            91.7505491,
            26.1603017
          ],
          [
            91.7505384,
            26.1605135
          ],
          [
            91.7504311,
            26.1608745
          ]
        ]
      }
    },
    {
      "type": "Feature",
      "properties": {
        "segment_id": "991931032",
        "highway": "residential",
        "status": "clear",
        "flood_overlap_ratio": 0.0
      },
      "geometry": {
        "type": "LineString",
        "coordinates": [
          [
            91.7545509,
            26.1593472
          ],
          [
            91.7548781,
            26.1593616
          ],
          [
            91.7552054,
            26.1593761
          ],
          [
            91.7553287,
            26.1593616
          ],
          [
            91.7553502,
            26.1593424
          ],
          [
            91.7553717,
            26.1592846
          ],
          [
            91.7553985,
            26.1591546
          ],
          [
            91.7554227,
            26.1590264
          ]
        ]
      }
    },
    {
      "type": "Feature",
      "properties": {
        "segment_id": "991931033",
        "highway": "residential",
        "status": "clear",
        "flood_overlap_ratio": 0.0
      },
      "geometry": {
        "type": "LineString",
        "coordinates": [
          [
            91.7545509,
            26.1593472
          ],
          [
            91.7545133,
            26.1593953
          ],
          [
            91.7545036,
            26.159458
          ],
          [
            91.7544559,
            26.1598266
          ]
        ]
      }
    },
    {
      "type": "Feature",
      "properties": {
        "segment_id": "991931034",
        "highway": "residential",
        "status": "clear",
        "flood_overlap_ratio": 0.0
      },
      "geometry": {
        "type": "LineString",
        "coordinates": [
          [
            91.7535346,
            26.1587538
          ],
          [
            91.7539618,
            26.158822
          ]
        ]
      }
    },
    {
      "type": "Feature",
      "properties": {
        "segment_id": "991931035",
        "highway": "residential",
        "status": "clear",
        "flood_overlap_ratio": 0.0
      },
      "geometry": {
        "type": "LineString",
        "coordinates": [
          [
            91.7529164,
            26.1598362
          ],
          [
            91.7529254,
            26.1588641
          ]
        ]
      }
    },
    {
      "type": "Feature",
      "properties": {
        "segment_id": "991931036",
        "highway": "residential",
        "status": "clear",
        "flood_overlap_ratio": 0.0
      },
      "geometry": {
        "type": "LineString",
        "coordinates": [
          [
            91.7546099,
            26.1587011
          ],
          [
            91.7545831,
            26.1587791
          ],
          [
            91.7545402,
            26.1591161
          ],
          [
            91.7545509,
            26.1593472
          ]
        ]
      }
    },
    {
      "type": "Feature",
      "properties": {
        "segment_id": "991931037",
        "highway": "residential",
        "status": "submerged",
        "flood_overlap_ratio": 0.6999
      },
      "geometry": {
        "type": "LineString",
        "coordinates": [
          [
            91.7542064,
            26.1583228
          ],
          [
            91.7542022,
            26.1581677
          ],
          [
            91.7540949,
            26.1580714
          ],
          [
            91.7539394,
            26.1580088
          ],
          [
            91.7535746,
            26.1579703
          ],
          [
            91.7524239,
            26.1576252
          ]
        ]
      }
    },
    {
      "type": "Feature",
      "properties": {
        "segment_id": "991931038",
        "highway": "residential",
        "status": "partial",
        "flood_overlap_ratio": 0.1765
      },
      "geometry": {
        "type": "LineString",
        "coordinates": [
          [
            91.7517343,
            26.1556453
          ],
          [
            91.7516109,
            26.1560545
          ],
          [
            91.751627,
            26.1561941
          ],
          [
            91.7517128,
            26.1564541
          ],
          [
            91.751981,
            26.156714
          ],
          [
            91.7520525,
            26.1570727
          ]
        ]
      }
    },
    {
      "type": "Feature",
      "properties": {
        "segment_id": "991931039",
        "highway": "residential",
        "status": "submerged",
        "flood_overlap_ratio": 0.6826
      },
      "geometry": {
        "type": "LineString",
        "coordinates": [
          [
            91.7574477,
            26.1582435
          ],
          [
            91.7574262,
            26.1574311
          ]
        ]
      }
    },
    {
      "type": "Feature",
      "properties": {
        "segment_id": "991934245",
        "highway": "residential",
        "status": "clear",
        "flood_overlap_ratio": 0.0
      },
      "geometry": {
        "type": "LineString",
        "coordinates": [
          [
            91.7585769,
            26.1607285
          ],
          [
            91.7585313,
            26.1600485
          ],
          [
            91.7585528,
            26.1598558
          ],
          [
            91.7589819,
            26.1598269
          ]
        ]
      }
    },
    {
      "type": "Feature",
      "properties": {
        "segment_id": "991934246",
        "highway": "residential",
        "status": "clear",
        "flood_overlap_ratio": 0.0
      },
      "geometry": {
        "type": "LineString",
        "coordinates": [
          [
            91.7578505,
            26.159992
          ],
          [
            91.757888,
            26.1598669
          ],
          [
            91.7578719,
            26.1592119
          ]
        ]
      }
    },
    {
      "type": "Feature",
      "properties": {
        "segment_id": "991934247",
        "highway": "residential",
        "status": "clear",
        "flood_overlap_ratio": 0.0
      },
      "geometry": {
        "type": "LineString",
        "coordinates": [
          [
            91.7597528,
            26.1586538
          ],
          [
            91.7590197,
            26.1586009
          ],
          [
            91.7585421,
            26.158587
          ]
        ]
      }
    },
    {
      "type": "Feature",
      "properties": {
        "segment_id": "991934248",
        "highway": "residential",
        "status": "clear",
        "flood_overlap_ratio": 0.0
      },
      "geometry": {
        "type": "LineString",
        "coordinates": [
          [
            91.7598565,
            26.1568134
          ],
          [
            91.7599315,
            26.1567621
          ],
          [
            91.760012,
            26.1567428
          ],
          [
            91.7602909,
            26.1567476
          ],
          [
            91.7605805,
            26.1566706
          ]
        ]
      }
    },
    {
      "type": "Feature",
      "properties": {
        "segment_id": "991934251",
        "highway": "residential",
        "status": "clear",
        "flood_overlap_ratio": 0.0341
      },
      "geometry": {
        "type": "LineString",
        "coordinates": [
          [
            91.755318,
            26.1520915
          ],
          [
            91.7549747,
            26.1519375
          ],
          [
            91.7544114,
            26.1518075
          ],
          [
            91.7538804,
            26.1516342
          ],
          [
            91.7535478,
            26.151639
          ],
          [
            91.7530167,
            26.1517834
          ],
          [
            91.7523408,
            26.1518893
          ],
          [
            91.7514181,
            26.1518604
          ],
          [
            91.7510926,
            26.1519497
          ],
          [
            91.7501426,
            26.1524236
          ],
          [
            91.7496712,
            26.1526653
          ],
          [
            91.7494548,
            26.152766
          ],
          [
            91.749419,
            26.1527895
          ],
          [
            91.7494064,
            26.1528128
          ],
          [
            91.7494221,
            26.1528408
          ],
          [
            91.7494916,
            26.152943
          ],
          [
            91.7495131,
            26.1529777
          ],
          [
            91.7495295,
            26.1530053
          ],
          [
            91.7495201,
            26.1530234
          ],
          [
            91.7494939,
            26.1530406
          ],
          [
            91.7494241,
            26.1530768
          ],
          [
            91.7490708,
            26.1531957
          ],
          [
            91.7487963,
            26.1533541
          ],
          [
            91.7487768,
            26.1533811
          ],
          [
            91.748752,
            26.1534255
          ],
          [
            91.7487538,
            26.153443
          ],
          [
            91.7489095,
            26.1536241
          ]
        ]
      }
    },
    {
      "type": "Feature",
      "properties": {
        "segment_id": "991934252",
        "highway": "residential",
        "status": "partial",
        "flood_overlap_ratio": 0.0778
      },
      "geometry": {
        "type": "LineString",
        "coordinates": [
          [
            91.7594647,
            26.1516573
          ],
          [
            91.7592984,
            26.1517055
          ],
          [
            91.7592716,
            26.1517585
          ],
          [
            91.7592394,
            26.1521582
          ],
          [
            91.7591214,
            26.152476
          ],
          [
            91.759057,
            26.1528275
          ],
          [
            91.7585903,
            26.1536125
          ],
          [
            91.7582524,
            26.1538677
          ],
          [
            91.7581987,
            26.1538822
          ],
          [
            91.7578125,
            26.1540892
          ]
        ]
      }
    },
    {
      "type": "Feature",
      "properties": {
        "segment_id": "991934253",
        "highway": "residential",
        "status": "submerged",
        "flood_overlap_ratio": 1.0
      },
      "geometry": {
        "type": "LineString",
        "coordinates": [
          [
            91.755318,
            26.1520915
          ],
          [
            91.754567,
            26.1528859
          ],
          [
            91.7542076,
            26.1533144
          ],
          [
            91.7540574,
            26.1534059
          ],
          [
            91.7540467,
            26.1536322
          ]
        ]
      }
    },
    {
      "type": "Feature",
      "properties": {
        "segment_id": "991934254",
        "highway": "residential",
        "status": "submerged",
        "flood_overlap_ratio": 1.0
      },
      "geometry": {
        "type": "LineString",
        "coordinates": [
          [
            91.755318,
            26.1520915
          ],
          [
            91.7555165,
            26.1524141
          ],
          [
            91.7556131,
            26.1525296
          ],
          [
            91.75601,
            26.1528811
          ],
          [
            91.7563909,
            26.1531652
          ],
          [
            91.7567074,
            26.1534444
          ],
          [
            91.756745,
            26.1537718
          ],
          [
            91.7567289,
            26.1538151
          ]
        ]
      }
    },
    {
      "type": "Feature",
      "properties": {
        "segment_id": "991934255",
        "highway": "residential",
        "status": "partial",
        "flood_overlap_ratio": 0.0799
      },
      "geometry": {
        "type": "LineString",
        "coordinates": [
          [
            91.755318,
            26.1520915
          ],
          [
            91.7555326,
            26.1518941
          ],
          [
            91.7562675,
            26.1517641
          ],
          [
            91.7564928,
            26.1516101
          ],
          [
            91.7567342,
            26.151509
          ],
          [
            91.7572653,
            26.1514705
          ]
        ]
      }
    },
    {
      "type": "Feature",
      "properties": {
        "segment_id": "991934256",
        "highway": "residential",
        "status": "submerged",
        "flood_overlap_ratio": 0.8082
      },
      "geometry": {
        "type": "LineString",
        "coordinates": [
          [
            91.757559,
            26.1520554
          ],
          [
            91.7572492,
            26.1520049
          ],
          [
            91.756761,
            26.1520193
          ],
          [
            91.7566806,
            26.1520434
          ],
          [
            91.7566913,
            26.1522311
          ],
          [
            91.7567503,
            26.1524671
          ]
        ]
      }
    },
    {
      "type": "Feature",
      "properties": {
        "segment_id": "991934257",
        "highway": "residential",
        "status": "submerged",
        "flood_overlap_ratio": 1.0
      },
      "geometry": {
        "type": "LineString",
        "coordinates": [
          [
            91.75601,
            26.1528811
          ],
          [
            91.7562139,
            26.1527078
          ],
          [
            91.7564606,
            26.152573
          ],
          [
            91.7567503,
            26.1524671
          ],
          [
            91.757394,
            26.1523274
          ],
          [
            91.7576944,
            26.1523082
          ],
          [
            91.757559,
            26.1520554
          ]
        ]
      }
    },
    {
      "type": "Feature",
      "properties": {
        "segment_id": "991934258",
        "highway": "residential",
        "status": "submerged",
        "flood_overlap_ratio": 0.9546
      },
      "geometry": {
        "type": "LineString",
        "coordinates": [
          [
            91.7579412,
            26.1525049
          ],
          [
            91.7579091,
            26.1525723
          ],
          [
            91.7579734,
            26.1528901
          ]
        ]
      }
    },
    {
      "type": "Feature",
      "properties": {
        "segment_id": "991934259",
        "highway": "residential",
        "status": "submerged",
        "flood_overlap_ratio": 1.0
      },
      "geometry": {
        "type": "LineString",
        "coordinates": [
          [
            91.7579412,
            26.1525049
          ],
          [
            91.7578876,
            26.1524182
          ],
          [
            91.7579037,
            26.1523556
          ],
          [
            91.7579037,
            26.1522256
          ],
          [
            91.7578608,
            26.1521148
          ]
        ]
      }
    },
    {
      "type": "Feature",
      "properties": {
        "segment_id": "991934260",
        "highway": "residential",
        "status": "partial",
        "flood_overlap_ratio": 0.0782
      },
      "geometry": {
        "type": "LineString",
        "coordinates": [
          [
            91.7591214,
            26.152476
          ],
          [
            91.7582738,
            26.1524471
          ],
          [
            91.7579412,
            26.1525049
          ]
        ]
      }
    },
    {
      "type": "Feature",
      "properties": {
        "segment_id": "991934261",
        "highway": "residential",
        "status": "submerged",
        "flood_overlap_ratio": 0.9848
      },
      "geometry": {
        "type": "LineString",
        "coordinates": [
          [
            91.757559,
            26.1520554
          ],
          [
            91.7576193,
            26.1520386
          ],
          [
            91.7578608,
            26.1521148
          ]
        ]
      }
    },
    {
      "type": "Feature",
      "properties": {
        "segment_id": "991934262",
        "highway": "residential",
        "status": "partial",
        "flood_overlap_ratio": 0.0542
      },
      "geometry": {
        "type": "LineString",
        "coordinates": [
          [
            91.7572868,
            26.1512731
          ],
          [
            91.7572653,
            26.1514705
          ],
          [
            91.757276,
            26.1514993
          ],
          [
            91.7572492,
            26.1520049
          ]
        ]
      }
    },
    {
      "type": "Feature",
      "properties": {
        "segment_id": "991934263",
        "highway": "residential",
        "status": "clear",
        "flood_overlap_ratio": 0.0
      },
      "geometry": {
        "type": "LineString",
        "coordinates": [
          [
            91.7572868,
            26.1512731
          ],
          [
            91.7572331,
            26.1512586
          ],
          [
            91.7567932,
            26.1512971
          ],
          [
            91.7566108,
            26.1512971
          ]
        ]
      }
    },
    {
      "type": "Feature",
      "properties": {
        "segment_id": "991934264",
        "highway": "residential",
        "status": "clear",
        "flood_overlap_ratio": 0.0
      },
      "geometry": {
        "type": "LineString",
        "coordinates": [
          [
            91.7572868,
            26.1512731
          ],
          [
            91.7574477,
            26.1512394
          ],
          [
            91.7578125,
            26.1512239
          ]
        ]
      }
    },
    {
      "type": "Feature",
      "properties": {
        "segment_id": "991934265",
        "highway": "residential",
        "status": "clear",
        "flood_overlap_ratio": 0.0
      },
      "geometry": {
        "type": "LineString",
        "coordinates": [
          [
            91.7595023,
            26.1511228
          ],
          [
            91.7590892,
            26.1512962
          ],
          [
            91.758939,
            26.1512721
          ],
          [
            91.7588586,
            26.1512239
          ],
          [
            91.7578125,
            26.1512239
          ]
        ]
      }
    },
    {
      "type": "Feature",
      "properties": {
        "segment_id": "991934266",
        "highway": "residential",
        "status": "clear",
        "flood_overlap_ratio": 0.0
      },
      "geometry": {
        "type": "LineString",
        "coordinates": [
          [
            91.7594647,
            26.1516573
          ],
          [
            91.7595184,
            26.1514695
          ],
          [
            91.7595023,
            26.1511228
          ]
        ]
      }
    },
    {
      "type": "Feature",
      "properties": {
        "segment_id": "991934267",
        "highway": "residential",
        "status": "clear",
        "flood_overlap_ratio": 0.0
      },
      "geometry": {
        "type": "LineString",
        "coordinates": [
          [
            91.7594647,
            26.1516573
          ],
          [
            91.7596847,
            26.1516622
          ],
          [
            91.7601406,
            26.1515947
          ],
          [
            91.7603284,
            26.1515466
          ],
          [
            91.7603928,
            26.1515129
          ],
          [
            91.7607576,
            26.1512384
          ],
          [
            91.7611223,
            26.1510169
          ],
          [
            91.7614496,
            26.1509398
          ],
          [
            91.7618465,
            26.1508146
          ],
          [
            91.7623079,
            26.1507376
          ],
          [
            91.762737,
            26.1505449
          ],
          [
            91.7631018,
            26.150516
          ],
          [
            91.7634988,
            26.1505064
          ],
          [
            91.763767,
            26.1504294
          ],
          [
            91.7639869,
            26.150333
          ],
          [
            91.7641961,
            26.1501597
          ],
          [
            91.7642712,
            26.15002
          ],
          [
            91.7643463,
            26.1499333
          ],
          [
            91.7645502,
            26.1498563
          ],
          [
            91.7647326,
            26.1498707
          ],
          [
            91.765033,
            26.1500368
          ],
          [
            91.7651071,
            26.1500679
          ],
          [
            91.7654514,
            26.1501549
          ],
          [
            91.765502,
            26.1501829
          ],
          [
            91.7655254,
            26.1502171
          ],
          [
            91.7655442,
            26.1502614
          ],
          [
            91.7655162,
            26.1504476
          ],
          [
            91.7655251,
            26.1505056
          ],
          [
            91.7655495,
            26.1505483
          ],
          [
            91.7655869,
            26.1505831
          ],
          [
            91.765895,
            26.1508582
          ],
          [
            91.7659326,
            26.1509057
          ],
          [
            91.7659663,
            26.1509667
          ],
          [
            91.7659729,
            26.1510264
          ],
          [
            91.7659744,
            26.1510971
          ],
          [
            91.7659846,
            26.1511698
          ],
          [
            91.7660129,
            26.1512562
          ],
          [
            91.7661104,
            26.1513997
          ],
          [
            91.7661801,
            26.1515121
          ],
          [
            91.7662275,
            26.1515691
          ],
          [
            91.7662787,
            26.1516034
          ],
          [
            91.7663347,
            26.1516293
          ],
          [
            91.7664131,
            26.1516472
          ],
          [
            91.7665783,
            26.1516951
          ],
          [
            91.7666163,
            26.1517334
          ],
          [
            91.7666374,
            26.1517841
          ],
          [
            91.7666553,
            26.1518348
          ],
          [
            91.7666654,
            26.1518885
          ],
          [
            91.7666613,
            26.1519573
          ],
          [
            91.766639,
            26.1520455
          ],
          [
            91.7667659,
            26.1522548
          ]
        ]
      }
    },
    {
      "type": "Feature",
      "properties": {
        "segment_id": "991934268",
        "highway": "residential",
        "status": "clear",
        "flood_overlap_ratio": 0.0
      },
      "geometry": {
        "type": "LineString",
        "coordinates": [
          [
            91.7595023,
            26.1511228
          ],
          [
            91.7595291,
            26.1510939
          ],
          [
            91.7596579,
            26.1510458
          ],
          [
            91.7600548,
            26.1509783
          ]
        ]
      }
    },
    {
      "type": "Feature",
      "properties": {
        "segment_id": "991934269",
        "highway": "residential",
        "status": "submerged",
        "flood_overlap_ratio": 1.0
      },
      "geometry": {
        "type": "LineString",
        "coordinates": [
          [
            91.7567289,
            26.1538151
          ],
          [
            91.7568308,
            26.1541088
          ],
          [
            91.7572492,
            26.1543206
          ]
        ]
      }
    },
    {
      "type": "Feature",
      "properties": {
        "segment_id": "991934270",
        "highway": "residential",
        "status": "submerged",
        "flood_overlap_ratio": 1.0
      },
      "geometry": {
        "type": "LineString",
        "coordinates": [
          [
            91.7567289,
            26.1538151
          ],
          [
            91.7563212,
            26.1538296
          ]
        ]
      }
    },
    {
      "type": "Feature",
      "properties": {
        "segment_id": "991934271",
        "highway": "residential",
        "status": "submerged",
        "flood_overlap_ratio": 1.0
      },
      "geometry": {
        "type": "LineString",
        "coordinates": [
          [
            91.7578125,
            26.1540892
          ],
          [
            91.7574423,
            26.1542869
          ],
          [
            91.7572492,
            26.1543206
          ],
          [
            91.7571902,
            26.1543592
          ],
          [
            91.7570185,
            26.154364
          ]
        ]
      }
    },
    {
      "type": "Feature",
      "properties": {
        "segment_id": "991934272",
        "highway": "residential",
        "status": "clear",
        "flood_overlap_ratio": 0.0
      },
      "geometry": {
        "type": "LineString",
        "coordinates": [
          [
            91.7582092,
            26.1544192
          ],
          [
            91.7582418,
            26.1541543
          ],
          [
            91.7581987,
            26.1540507
          ],
          [
            91.7582685,
            26.1539255
          ],
          [
            91.7582524,
            26.1538677
          ]
        ]
      }
    },
    {
      "type": "Feature",
      "properties": {
        "segment_id": "991934273",
        "highway": "residential",
        "status": "submerged",
        "flood_overlap_ratio": 1.0
      },
      "geometry": {
        "type": "LineString",
        "coordinates": [
          [
            91.7553502,
            26.1534781
          ],
          [
            91.7551303,
            26.153637
          ],
          [
            91.755023,
            26.1536851
          ],
          [
            91.7549211,
            26.1537044
          ],
          [
            91.75439,
            26.1537236
          ],
          [
            91.7540467,
            26.1536322
          ],
          [
            91.7537463,
            26.1536562
          ],
          [
            91.7536443,
            26.1536755
          ],
          [
            91.7535371,
            26.1537236
          ]
        ]
      }
    },
    {
      "type": "Feature",
      "properties": {
        "segment_id": "1059214434",
        "highway": "residential",
        "status": "clear",
        "flood_overlap_ratio": 0.0
      },
      "geometry": {
        "type": "LineString",
        "coordinates": [
          [
            91.7495567,
            26.1572906
          ],
          [
            91.7497519,
            26.1574807
          ],
          [
            91.7502139,
            26.1576134
          ],
          [
            91.7504561,
            26.1575442
          ]
        ]
      }
    },
    {
      "type": "Feature",
      "properties": {
        "segment_id": "1124976973",
        "highway": "residential",
        "status": "clear",
        "flood_overlap_ratio": 0.0
      },
      "geometry": {
        "type": "LineString",
        "coordinates": [
          [
            91.7581995,
            26.1580943
          ],
          [
            91.7581585,
            26.1578383
          ],
          [
            91.7581022,
            26.1574531
          ]
        ]
      }
    },
    {
      "type": "Feature",
      "properties": {
        "segment_id": "1124976974",
        "highway": "secondary",
        "status": "clear",
        "flood_overlap_ratio": 0.0
      },
      "geometry": {
        "type": "LineString",
        "coordinates": [
          [
            91.7659977,
            26.1591134
          ],
          [
            91.7659972,
            26.1589939
          ],
          [
            91.7659812,
            26.1588855
          ],
          [
            91.7659624,
            26.1588434
          ],
          [
            91.765939,
            26.1588162
          ],
          [
            91.765894,
            26.1587989
          ],
          [
            91.765839,
            26.1587904
          ],
          [
            91.7655588,
            26.1588068
          ],
          [
            91.7647514,
            26.1588542
          ],
          [
            91.7645826,
            26.1588522
          ],
          [
            91.7644231,
            26.1588504
          ],
          [
            91.7641515,
            26.1588509
          ],
          [
            91.7640183,
            26.1588512
          ],
          [
            91.7639581,
            26.1588509
          ],
          [
            91.7632224,
            26.1588477
          ],
          [
            91.7630964,
            26.1588326
          ],
          [
            91.7629834,
            26.1588127
          ],
          [
            91.7629725,
            26.1588108
          ],
          [
            91.7628336,
            26.1587628
          ],
          [
            91.762354,
            26.1585528
          ],
          [
            91.7622754,
            26.1585173
          ],
          [
            91.7621899,
            26.1584787
          ],
          [
            91.7620423,
            26.1584329
          ],
          [
            91.7618723,
            26.1584096
          ],
          [
            91.7614067,
            26.1584016
          ],
          [
            91.7612969,
            26.1584069
          ],
          [
            91.7610258,
            26.1584118
          ],
          [
            91.7609184,
            26.1584197
          ],
          [
            91.7604104,
            26.1584245
          ],
          [
            91.7600232,
            26.1583948
          ],
          [
            91.7599481,
            26.158389
          ],
          [
            91.7598436,
            26.1583753
          ],
          [
            91.7597087,
            26.158347
          ],
          [
            91.7596021,
            26.158292
          ],
          [
            91.7594762,
            26.1582044
          ],
          [
            91.7592662,
            26.1580574
          ],
          [
            91.7590946,
            26.1579466
          ],
          [
            91.7590105,
            26.1579283
          ],
          [
            91.7589283,
            26.1579105
          ],
          [
            91.7587253,
            26.1579197
          ],
          [
            91.7585588,
            26.1579639
          ],
          [
            91.7583675,
            26.1580333
          ]
        ]
      }
    },
    {
      "type": "Feature",
      "properties": {
        "segment_id": "1190358391",
        "highway": "residential",
        "status": "submerged",
        "flood_overlap_ratio": 1.0
      },
      "geometry": {
        "type": "LineString",
        "coordinates": [
          [
            91.7523193,
            26.1564345
          ],
          [
            91.7523461,
            26.1566464
          ],
          [
            91.7524011,
            26.1568632
          ]
        ]
      }
    },
    {
      "type": "Feature",
      "properties": {
        "segment_id": "1266694959",
        "highway": "residential",
        "status": "clear",
        "flood_overlap_ratio": 0.0
      },
      "geometry": {
        "type": "LineString",
        "coordinates": [
          [
            91.7507659,
            26.1586497
          ],
          [
            91.7507319,
            26.1587166
          ],
          [
            91.7506239,
            26.1588989
          ]
        ]
      }
    },
    {
      "type": "Feature",
      "properties": {
        "segment_id": "1266695310",
        "highway": "living_street",
        "status": "clear",
        "flood_overlap_ratio": 0.0
      },
      "geometry": {
        "type": "LineString",
        "coordinates": [
          [
            91.7516729,
            26.1595115
          ],
          [
            91.7517101,
            26.1596477
          ],
          [
            91.751739,
            26.1597824
          ],
          [
            91.7517846,
            26.1599175
          ],
          [
            91.7518258,
            26.1600448
          ]
        ]
      }
    },
    {
      "type": "Feature",
      "properties": {
        "segment_id": "1266749754",
        "highway": "residential",
        "status": "partial",
        "flood_overlap_ratio": 0.2499
      },
      "geometry": {
        "type": "LineString",
        "coordinates": [
          [
            91.7570097,
            26.1582594
          ],
          [
            91.7570012,
            26.1579397
          ]
        ]
      }
    },
    {
      "type": "Feature",
      "properties": {
        "segment_id": "1266751046",
        "highway": "residential",
        "status": "clear",
        "flood_overlap_ratio": 0.0
      },
      "geometry": {
        "type": "LineString",
        "coordinates": [
          [
            91.7590105,
            26.1579283
          ],
          [
            91.7591296,
            26.1574009
          ]
        ]
      }
    },
    {
      "type": "Feature",
      "properties": {
        "segment_id": "1304410167",
        "highway": "residential",
        "status": "clear",
        "flood_overlap_ratio": 0.0
      },
      "geometry": {
        "type": "LineString",
        "coordinates": [
          [
            91.7537102,
            26.1593439
          ],
          [
            91.7537448,
            26.1595638
          ],
          [
            91.7537838,
            26.1598121
          ]
        ]
      }
    },
    {
      "type": "Feature",
      "properties": {
        "segment_id": "1304410168",
        "highway": "residential",
        "status": "clear",
        "flood_overlap_ratio": 0.0
      },
      "geometry": {
        "type": "LineString",
        "coordinates": [
          [
            91.7537448,
            26.1595638
          ],
          [
            91.7545036,
            26.159458
          ]
        ]
      }
    },
    {
      "type": "Feature",
      "properties": {
        "segment_id": "1353904384",
        "highway": "residential",
        "status": "submerged",
        "flood_overlap_ratio": 0.8845
      },
      "geometry": {
        "type": "LineString",
        "coordinates": [
          [
            91.7563508,
            26.1582445
          ],
          [
            91.7563921,
            26.157762
          ],
          [
            91.7563758,
            26.1574414
          ],
          [
            91.7563338,
            26.156886
          ],
          [
            91.7563221,
            26.1564437
          ],
          [
            91.7561927,
            26.1555145
          ],
          [
            91.7562112,
            26.1554896
          ],
          [
            91.7565378,
            26.1551909
          ],
          [
            91.756775,
            26.1550693
          ],
          [
            91.7574806,
            26.1548314
          ],
          [
            91.7577887,
            26.1547014
          ],
          [
            91.7578873,
            26.1546572
          ],
          [
            91.7580721,
            26.1545466
          ],
          [
            91.7582092,
            26.1544192
          ]
        ]
      }
    }
  ]
}